{"type": "FeatureCollection", "features": [ {"type": "Feature", "properties": {"norad_id": 37340, "name": "COSMOS 2251 DEB", "group": "cosmos-2251-debris", "lat": -0.15990523177113514, "lon": -94.78988078502489, "alt_km": 758.4519628744092, "timestamp": "2025-12-19T04:59:48.704559+00:00", "meta": {"OBJECT_NAME": "COSMOS 2251 DEB", "OBJECT_ID": "1993-036BLG", "EPOCH": "2025-12-17T01:11:59.297568", "MEAN_MOTION": 14.36928464, "ECCENTRICITY": 0.00179655, "INCLINATION": 74.0254, "RA_OF_ASC_NODE": 269.2249, "ARG_OF_PERICENTER": 3.2012, "MEAN_ANOMALY": 356.9253, "EPHEMERIS_TYPE": 0, "CLASSIFICATION_TYPE": "U", "NORAD_CAT_ID": 37340, "ELEMENT_SET_NO": 999, "REV_AT_EPOCH": 84129, "BSTAR": 0.00016814151, "MEAN_MOTION_DOT": 4.72e-06, "MEAN_MOTION_DDOT": 0}, "tle": {"line1": "1 37340U 93036BLG 25351.04999187  .00000472  00000+0  16814-3 0  9996", "line2": "2 37340  74.0254 269.2249 0017965   3.2012 356.9253 14.36928464841295"}}, "geometry": {"type": "Point", "coordinates": [-94.78988078502489, -0.15990523177113514]}}, {"type": "Feature", "properties": {"norad_id": 37483, "name": "COSMOS 2251 DEB", "group": "cosmos-2251-debris", "lat": -73.48524022989811, "lon": 27.06868479082026, "alt_km": 730.6821226873235, "timestamp": "2025-12-19T04:59:48.704572+00:00", "meta": {"OBJECT_NAME": "COSMOS 2251 DEB", "OBJECT_ID": "1993-036BLL", "EPOCH": "2025-12-17T01:51:56.048256", "MEAN_MOTION": 14.43563057, "ECCENTRICITY": 0.00933386, "INCLINATION": 73.9734, "RA_OF_ASC_NODE": 135.2418, "ARG_OF_PERICENTER": 340.7121, "MEAN_ANOMALY": 19.051, "EPHEMERIS_TYPE": 0, "CLASSIFICATION_TYPE": "U", "NORAD_CAT_ID": 37483, "ELEMENT_SET_NO": 999, "REV_AT_EPOCH": 65342, "BSTAR": 0.00018193502, "MEAN_MOTION_DOT": 6.2e-06, "MEAN_MOTION_DDOT": 0}, "tle": {"line1": "1 37483U 93036BLL 25351.07773204  .00000620  00000+0  18194-3 0  9995", "line2": "2 37483  73.9734 135.2418 0093338 340.7121  19.0510 14.43563057653422"}}, "geometry": {"type": "Point", "coordinates": [27.06868479082026, -73.48524022989811]}}, {"type": "Feature", "properties": {"norad_id": 37484, "name": "COSMOS 2251 DEB", "group": "cosmos-2251-debris", "lat": 60.85478767109735, "lon": -15.073260129444002, "alt_km": 758.2904303502337, "timestamp": "2025-12-19T04:59:48.704582+00:00", "meta": {"OBJECT_NAME": "COSMOS 2251 DEB", "OBJECT_ID": "1993-036BLM", "EPOCH": "2025-12-18T07:38:27.570624", "MEAN_MOTION": 14.41807924, "ECCENTRICITY": 0.00394245, "INCLINATION": 73.8227, "RA_OF_ASC_NODE": 197.9673, "ARG_OF_PERICENTER": 231.9462, "MEAN_ANOMALY": 306.1628, "EPHEMERIS_TYPE": 0, "CLASSIFICATION_TYPE": "U", "NORAD_CAT_ID": 37484, "ELEMENT_SET_NO": 999, "REV_AT_EPOCH": 65459, "BSTAR": 0.0005692289, "MEAN_MOTION_DOT": 1.85e-05, "MEAN_MOTION_DDOT": 0}, "tle": {"line1": "1 37484U 93036BLM 25352.31837466  .00001850  00000+0  56923-3 0  9993", "line2": "2 37484  73.8227 197.9673 0039424 231.9462 306.1628 14.41807924654593"}}, "geometry": {"type": "Point", "coordinates": [-15.073260129444002, 60.85478767109735]}}, {"type": "Feature", "properties": {"norad_id": 37486, "name": "COSMOS 2251 DEB", "group": "cosmos-2251-debris", "lat": 67.85565655432164, "lon": 148.90799799761382, "alt_km": 879.9728285931442, "timestamp": "2025-12-19T04:59:48.704592+00:00", "meta": {"OBJECT_NAME": "COSMOS 2251 DEB", "OBJECT_ID": "1993-036BLP", "EPOCH": "2025-12-17T02:32:52.709568", "MEAN_MOTION": 14.133616, "ECCENTRICITY": 0.02300438, "INCLINATION": 73.6918, "RA_OF_ASC_NODE": 106.7033, "ARG_OF_PERICENTER": 334.068, "MEAN_ANOMALY": 206.8915, "EPHEMERIS_TYPE": 0, "CLASSIFICATION_TYPE": "U", "NORAD_CAT_ID": 37486, "ELEMENT_SET_NO": 999, "REV_AT_EPOCH": 63431, "BSTAR": 0.0015394853, "MEAN_MOTION_DOT": 3.693e-05, "MEAN_MOTION_DDOT": 0}, "tle": {"line1": "1 37486U 93036BLP 25351.10616562  .00003693  00000+0  15395-2 0  9997", "line2": "2 37486  73.6918 106.7033 0230043 334.0680 206.8915 14.13361600634313"}}, "geometry": {"type": "Point", "coordinates": [148.90799799761382, 67.85565655432164]}}, {"type": "Feature", "properties": {"norad_id": 37487, "name": "COSMOS 2251 DEB", "group": "cosmos-2251-debris", "lat": -52.961057639478376, "lon": 156.72433260208328, "alt_km": 625.7943969632552, "timestamp": "2025-12-19T04:59:48.704602+00:00", "meta": {"OBJECT_NAME": "COSMOS 2251 DEB", "OBJECT_ID": "1993-036BLQ", "EPOCH": "2025-12-12T06:17:24.389376", "MEAN_MOTION": 14.80982589, "ECCENTRICITY": 0.00255931, "INCLINATION": 73.9026, "RA_OF_ASC_NODE": 193.0379, "ARG_OF_PERICENTER": 31.2136, "MEAN_ANOMALY": 329.0553, "EPHEMERIS_TYPE": 0, "CLASSIFICATION_TYPE": "U", "NORAD_CAT_ID": 37487, "ELEMENT_SET_NO": 999, "REV_AT_EPOCH": 81238, "BSTAR": 0.0042593386, "MEAN_MOTION_DOT": 0.00033302, "MEAN_MOTION_DDOT": 0}, "tle": {"line1": "1 37487U 93036BLQ 25346.26208784  .00033302  00000+0  42593-2 0  9992", "line2": "2 37487  73.9026 193.0379 0025593  31.2136 329.0553 14.80982589812383"}}, "geometry": {"type": "Point", "coordinates": [156.72433260208328, -52.961057639478376]}}, {"type": "Feature", "properties": {"norad_id": 37491, "name": "COSMOS 2251 DEB", "group": "cosmos-2251-debris", "lat": 58.72491688623258, "lon": 54.86863811269927, "alt_km": 1144.4819099463857, "timestamp": "2025-12-19T04:59:48.704613+00:00", "meta": {"OBJECT_NAME": "COSMOS 2251 DEB", "OBJECT_ID": "1993-036BLU", "EPOCH": "2025-12-18T10:56:34.756512", "MEAN_MOTION": 13.75306466, "ECCENTRICITY": 0.03168182, "INCLINATION": 73.9061, "RA_OF_ASC_NODE": 264.5073, "ARG_OF_PERICENTER": 256.5569, "MEAN_ANOMALY": 100.0063, "EPHEMERIS_TYPE": 0, "CLASSIFICATION_TYPE": "U", "NORAD_CAT_ID": 37491, "ELEMENT_SET_NO": 999, "REV_AT_EPOCH": 55825, "BSTAR": 0.00075469167, "MEAN_MOTION_DOT": 1.019e-05, "MEAN_MOTION_DDOT": 0}, "tle": {"line1": "1 37491U 93036BLU 25352.45595783  .00001019  00000+0  75469-3 0  9992", "line2": "2 37491  73.9061 264.5073 0316818 256.5569 100.0063 13.75306466558250"}}, "geometry": {"type": "Point", "coordinates": [54.86863811269927, 58.72491688623258]}}, {"type": "Feature", "properties": {"norad_id": 37498, "name": "COSMOS 2251 DEB", "group": "cosmos-2251-debris", "lat": -34.42580574165573, "lon": 2.959737850085447, "alt_km": 707.6838044522538, "timestamp": "2025-12-19T04:59:48.704623+00:00", "meta": {"OBJECT_NAME": "COSMOS 2251 DEB", "OBJECT_ID": "1993-036BMB", "EPOCH": "2025-12-17T05:47:45.632832", "MEAN_MOTION": 14.54797097, "ECCENTRICITY": 0.00121661, "INCLINATION": 74.035, "RA_OF_ASC_NODE": 175.365, "ARG_OF_PERICENTER": 238.5243, "MEAN_ANOMALY": 121.4732, "EPHEMERIS_TYPE": 0, "CLASSIFICATION_TYPE": "U", "NORAD_CAT_ID": 37498, "ELEMENT_SET_NO": 999, "REV_AT_EPOCH": 65420, "BSTAR": 0.00050498457, "MEAN_MOTION_DOT": 2.139e-05, "MEAN_MOTION_DDOT": 0}, "tle": {"line1": "1 37498U 93036BMB 25351.24150038  .00002139  00000+0  50498-3 0  9994", "line2": "2 37498  74.0350 175.3650 0012166 238.5243 121.4732 14.54797097654202"}}, "geometry": {"type": "Point", "coordinates": [2.959737850085447, -34.42580574165573]}}, {"type": "Feature", "properties": {"norad_id": 37499, "name": "COSMOS 2251 DEB", "group": "cosmos-2251-debris", "lat": -45.28673691379712, "lon": -66.45567605150646, "alt_km": 777.572457956845, "timestamp": "2025-12-19T04:59:48.704633+00:00", "meta": {"OBJECT_NAME": "COSMOS 2251 DEB", "OBJECT_ID": "1993-036BMC", "EPOCH": "2025-12-18T20:50:53.978784", "MEAN_MOTION": 14.34348181, "ECCENTRICITY": 0.00271787, "INCLINATION": 74.038, "RA_OF_ASC_NODE": 310.9692, "ARG_OF_PERICENTER": 25.1963, "MEAN_ANOMALY": 335.0508, "EPHEMERIS_TYPE": 0, "CLASSIFICATION_TYPE": "U", "NORAD_CAT_ID": 37499, "ELEMENT_SET_NO": 999, "REV_AT_EPOCH": 85237, "BSTAR": 0.00013763408, "MEAN_MOTION_DOT": 3.62e-06, "MEAN_MOTION_DDOT": 0}, "tle": {"line1": "1 37499U 93036BMC 25352.86868031  .00000362  00000+0  13763-3 0  9993", "line2": "2 37499  74.0380 310.9692 0027178  25.1963 335.0508 14.34348181852373"}}, "geometry": {"type": "Point", "coordinates": [-66.45567605150646, -45.28673691379712]}}, {"type": "Feature", "properties": {"norad_id": 37528, "name": "COSMOS 2251 DEB", "group": "cosmos-2251-debris", "lat": 52.14680912544967, "lon": -91.62913583841637, "alt_km": 728.8223247644592, "timestamp": "2025-12-19T04:59:48.704643+00:00", "meta": {"OBJECT_NAME": "COSMOS 2251 DEB", "OBJECT_ID": "1993-036BNH", "EPOCH": "2025-12-17T01:06:35.387424", "MEAN_MOTION": 14.50536544, "ECCENTRICITY": 0.00211941, "INCLINATION": 74.037, "RA_OF_ASC_NODE": 114.0433, "ARG_OF_PERICENTER": 261.8302, "MEAN_ANOMALY": 98.0455, "EPHEMERIS_TYPE": 0, "CLASSIFICATION_TYPE": "U", "NORAD_CAT_ID": 37528, "ELEMENT_SET_NO": 999, "REV_AT_EPOCH": 85993, "BSTAR": 0.00037344013, "MEAN_MOTION_DOT": 1.439e-05, "MEAN_MOTION_DDOT": 0}, "tle": {"line1": "1 37528U 93036BNH 25351.04624291  .00001439  00000+0  37344-3 0  9990", "line2": "2 37528  74.0370 114.0433 0021194 261.8302  98.0455 14.50536544859935"}}, "geometry": {"type": "Point", "coordinates": [-91.62913583841637, 52.14680912544967]}}, {"type": "Feature", "properties": {"norad_id": 37530, "name": "COSMOS 2251 DEB", "group": "cosmos-2251-debris", "lat": 20.006793456534886, "lon": -32.219825069640365, "alt_km": 757.7786352415469, "timestamp": "2025-12-19T04:59:48.704659+00:00", "meta": {"OBJECT_NAME": "COSMOS 2251 DEB", "OBJECT_ID": "1993-036BNK", "EPOCH": "2025-12-16T15:31:15.279168", "MEAN_MOTION": 14.34508686, "ECCENTRICITY": 0.00259991, "INCLINATION": 74.0359, "RA_OF_ASC_NODE": 326.4868, "ARG_OF_PERICENTER": 27.4409, "MEAN_ANOMALY": 90.6459, "EPHEMERIS_TYPE": 0, "CLASSIFICATION_TYPE": "U", "NORAD_CAT_ID": 37530, "ELEMENT_SET_NO": 999, "REV_AT_EPOCH": 85288, "BSTAR": 0.00021920121, "MEAN_MOTION_DOT": 5.94e-06, "MEAN_MOTION_DDOT": 0}, "tle": {"line1": "1 37530U 93036BNK 25350.64670462  .00000594  00000+0  21920-3 0  9993", "line2": "2 37530  74.0359 326.4868 0025999  27.4409  90.6459 14.34508686852884"}}, "geometry": {"type": "Point", "coordinates": [-32.219825069640365, 20.006793456534886]}}]}